#dP2019  3 10  0  0  0.00000000      96 __u+U ITR00 FIT  IAC
## 2044      0.00000000   900.00000000 58552 0.0000000000000
+   99   C01C02C03C04C05C06C07C08C09C10C11C12C13C14C16C23E01
+        E02E03E04E05E07E08E09E11E12E13E14E15E18E19E21E24E25
+        E26E27E30E31E33E36G01G02G03G04G05G06G07G08G09G10G11
+        G12G13G14G15G16G17G18G19G20G21G22G23G24G25G26G27G28
+        G29G30G31G32J01J02J03J07R01R02R03R04R05R07R08R09R10
+        R11R13R14R15R16R17R18R19R20R21R22R23R24R26  0  0  0
++        12 11 12 12 12  8  8  8  8  9  8  8  8  7  8  0  5
++         5  5  5  5  5  5  5  5  5  4  5  4  5  5  5  5  5
++         5  5  5  5  5  5  3  3  3  4  3  3  3  3  3  3  3
++         3  3  3  3  3  3  3  3  3  3  3  3  3  3  3  3  3
++         3  3  3  3 10 10  9 15  5  5  5  5  5  6  5  5  5
++         5  5  5  5  6  5  5  5  5  6  5  5  6  8  0  0  0
%c M  cc GPS ccc cccc cccc cccc cccc ccccc ccccc ccccc ccccc
%c cc cc ccc ccc cccc cccc cccc cccc ccccc ccccc ccccc ccccc
%f  0.0000000  0.000000000  0.00000000000  0.000000000000000
%f  0.0000000  0.000000000  0.00000000000  0.000000000000000
%i    0    0    0    0      0      0      0      0         0
%i    0    0    0    0      0      0      0      0         0
/* INFORMATION & ANALYSIS CENTER (IAC) OF MCC   (RAPID DATA)
/* S/V CLOCKS ARE ALIGNED TO GPS & GLONASS TIME RESPECTIVELY
/* USING THE BROADCAST EPHEMERIS                            
/* PCV:IGS14_2038 OL/AL:FES2004  NONE     YN ORB:CoN CLK:CoN
*  2019 03 10  8  0  0.00000000
PC01 -32299.877899  27099.027227    800.806598    312.354129
PC02   4390.470857  41906.537001  -1162.483153   -368.108135
PC03 -14788.474331  39443.773891     82.081125    -84.493524
PC04 -39619.628079  14466.494862    373.080402      7.114603
PC05  21899.372145  35979.628767  -1405.251578   -102.526282
PC06  -8655.288479  35407.261505 -20555.347583    510.700209
PC07 -13295.513552  22759.223386  32980.364929    105.624747
PC08 -25377.343915  31746.768946 -11637.703582    126.069945
PC09    -38.169752  41187.320196  -7942.645906    593.725101
PC10    362.555159  26556.189073  32926.679149   -561.016554
PC11   9894.995940  15707.520007 -20793.815819    -43.616936
PC12  -8272.260085  26640.276779   1786.507141    480.598510
PC13 -13366.165320  32778.509092 -23033.796697   -585.019090
PC14  14368.668328  22330.186329  -8437.958198    776.660781
PC16  -6099.404135  37143.589758 -18832.803426   -341.393250
PC23      0.000000      0.000000      0.000000 999999.999999
PE01 -29275.084064  -4281.966632   -979.155827   -558.966537
PE02  29272.783842   4242.206025    921.105664     50.844525
PE03  19491.313258   8872.139472  20439.303439   -142.235664
PE04 -12898.479030  12444.630300 -23552.720918   -237.284432
PE05  14702.751492  25132.682523   5323.991888     94.214294
PE07  -1328.981465 -26630.685361  12852.813116   -146.320937
PE08  12620.867342 -12575.749084  23638.767573   6391.382288
PE09   1650.216159  26604.166616 -12879.334895   6504.697918
PE11  -9456.812755  25607.905996 -11412.153507   5716.591192
PE12 -20864.272730  19480.967315   7798.055516   6339.867246
PE13   9498.012061 -25670.435047  11293.881949    384.013040
PE14  20680.467678  -2464.153856 -25104.378608   6433.521691
PE15  20641.967930 -19861.060806  -7461.182574    917.649971
PE18 -14777.436237   3108.088882  17797.415268   -585.551207
PE19 -19463.907782 -10925.308454 -19441.624483     -7.844034
PE21 -18199.923245 -14405.991091 -18376.872663   -523.340622
PE24  -3134.180863  16048.906980  24658.505981   6193.083586
PE25  18155.071718  14417.368039  18402.720286   1869.992377
PE26  -7194.982466 -16671.768080  23387.333115   4815.452225
PE27   3546.303319 -15951.327107 -24682.294321    513.545275
PE30  22930.716273  -8278.370738 -16790.873158   5044.839523
PE31 -23185.439097   8140.050564  16504.880733    886.908898
PE33 -19740.479918   2379.063417  21936.905970    847.953259
PE36   7247.359786  16460.448521 -23495.245380    738.298749
PG01  -7058.863057  18549.331925 -17662.873034   -177.903659
PG02  21779.738238 -14957.353815   -881.212378   -159.739310
PG03   2625.100432  17207.378953 -20116.249993    185.946622
PG04  10776.131431  18984.506904  15140.773535    130.576213
PG05  17317.190075  -6600.566620  18980.781169      1.165365
PG06  23155.162445  -5109.704805 -11947.406024    258.553959
PG07   7968.620476  13224.104514  21854.057377     17.778644
PG08  -6566.322388  22994.100888  11385.773141   -135.603769
PG09   8604.188556  22872.898748  10346.586205    447.433336
PG10 -24231.864207 -10892.716904  -2243.614494    100.512567
PG11  -6753.614051  24244.218954  -9379.535858   -647.563774
PG12   -217.234852 -16545.985915 -21026.524204    261.408618
PG13  12542.999355 -16786.685658  16181.225173    -72.245539
PG14 -15081.972652    452.927444 -21545.048534    -88.889598
PG15   3622.324204 -24385.340197   9094.102950   -324.257357
PG16 -16289.120468   5509.366101  20190.534734    -24.384969
PG17  13360.209044   9990.252245 -20284.458040     21.239760
PG18 -15099.554982  19467.433924 -10219.820580     33.431766
PG19  14911.131564    -85.316490 -22275.638500   -343.964389
PG20 -21177.512105 -14182.906606   7617.331590    522.952515
PG21 -11905.116060 -10867.164990  21910.701683   -235.372306
PG22  -5681.720881  14785.225225 -21082.621209   -661.252268
PG23   1673.887090  26280.003667    185.102141   -194.564020
PG24  10100.663416 -19904.014499 -14299.725706    -63.169466
PG25 -12660.906867 -18264.858643 -14942.518778   -731.115113
PG26 -23042.874566   -842.982904  13318.246816    145.248435
PG27 -11974.900065  14289.309027  18703.461710    -83.109988
PG28  22490.376208  13969.372114   -696.538942    766.057645
PG29  -3528.330927 -25572.700152   6229.647077    252.786382
PG30  18178.238746   5308.434979  18706.120634    -65.904004
PG31 -23927.833175   5482.615771 -10683.833711     53.209393
PG32 -15064.859791  -6238.827326 -20942.134317   -188.423110
PJ01 -19884.554538  21486.810014 -25715.241399   -169.754288
PJ02 -31159.495371  24245.847879  19541.789362      0.129713
PJ03 -26926.291818  26951.037002  23139.382199     -0.274558
PJ07 -25378.381356  33668.523245    -21.473091     67.382691
PR01 -10148.854295 -21604.508578   8976.479434     40.598373
PR02 -17019.446819 -15365.278534 -11194.625648    358.053621
PR03 -12688.269191    179.987490 -22096.052455     -7.819804
PR04   -484.161842  15911.793292 -19909.533191    298.061109
PR05  11319.993902  21823.239828  -6754.625162     23.748488
PR07  12404.568931   -746.293721  22304.549531    -59.548526
PR08   1093.075721 -15432.048313  20334.848806     18.720636
PR09  23213.401225   3156.745483  10177.967258     58.321324
PR10  24573.723044  -4284.663580  -5542.111524     44.496087
PR11  11840.194613 -10578.063254 -19968.916914    -59.204155
PR13 -22467.720768  -3435.613749 -11602.442765    -21.057966
PR14 -24471.626434   4565.902609   5553.245201     36.750128
PR15 -12677.451194  10279.695388  19620.501576    100.525688
PR16   6588.409628  10167.721681  22402.753902     10.820778
PR17 -14479.094346  11658.586298  17496.234195    210.880102
PR18 -11934.515506  22378.660002   2405.101151     35.709873
PR19  -3476.923041  20956.078748 -14111.553343    -60.674899
PR20   8530.086660   6222.964255 -23204.881772   -371.281245
PR21  14456.986342 -12180.796463 -17109.745145    -35.685100
PR22  11029.872272 -23077.165854    269.329631     -8.636996
PR23   -106.111871 -18277.281289  17795.917961    214.396254
PR24  -9451.034109  -4548.804397  23233.157296   -178.032358
PR26   7432.346128   8404.139779 -22894.009186      0.255585
EOF
